{"type": "FeatureCollection", "features": [ {"type": "Feature", "properties": {"norad_id": 40315, "name": "COSMOS 2501 (702K)", "group": "gnss", "lat": 54.73214451167902, "lon": -119.03850573526897, "alt_km": 19161.996055452648, "timestamp": "2025-12-26T05:31:12.749302+00:00", "meta": {"OBJECT_NAME": "COSMOS 2501 (702K)", "OBJECT_ID": "2014-075A", "EPOCH": "2025-12-25T04:55:56.926272", "MEAN_MOTION": 2.13101331, "ECCENTRICITY": 0.00201021, "INCLINATION": 63.6163, "RA_OF_ASC_NODE": 196.393, "ARG_OF_PERICENTER": 203.9317, "MEAN_ANOMALY": 156.0272, "EPHEMERIS_TYPE": 0, "CLASSIFICATION_TYPE": "U", "NORAD_CAT_ID": 40315, "ELEMENT_SET_NO": 999, "REV_AT_EPOCH": 8614, "BSTAR": 0, "MEAN_MOTION_DOT": 1.04e-06, "MEAN_MOTION_DDOT": 0}, "tle": {"line1": "1 40315U 14075A   25359.20551998  .00000104  00000+0  00000+0 0  9996", "line2": "2 40315  63.6163 196.3930 0020102 203.9317 156.0272  2.13101331 86148"}}, "geometry": {"type": "Point", "coordinates": [-119.03850573526897, 54.73214451167902]}}, {"type": "Feature", "properties": {"norad_id": 40534, "name": "GPS BIIF-9  (PRN 26)", "group": "gnss", "lat": 36.89657395155433, "lon": -2.8573337549355955, "alt_km": 20187.480184866414, "timestamp": "2025-12-26T05:31:12.749314+00:00", "meta": {"OBJECT_NAME": "GPS BIIF-9  (PRN 26)", "OBJECT_ID": "2015-013A", "EPOCH": "2025-12-25T01:17:18.655296", "MEAN_MOTION": 2.00561796, "ECCENTRICITY": 0.0107504, "INCLINATION": 53.1961, "RA_OF_ASC_NODE": 211.3802, "ARG_OF_PERICENTER": 38.7737, "MEAN_ANOMALY": 322.0645, "EPHEMERIS_TYPE": 0, "CLASSIFICATION_TYPE": "U", "NORAD_CAT_ID": 40534, "ELEMENT_SET_NO": 999, "REV_AT_EPOCH": 7833, "BSTAR": 0, "MEAN_MOTION_DOT": 7.9e-07, "MEAN_MOTION_DDOT": 0}, "tle": {"line1": "1 40534U 15013A   25359.05368814  .00000079  00000+0  00000+0 0  9999", "line2": "2 40534  53.1961 211.3802 0107504  38.7737 322.0645  2.00561796 78331"}}, "geometry": {"type": "Point", "coordinates": [-2.8573337549355955, 36.89657395155433]}}, {"type": "Feature", "properties": {"norad_id": 40544, "name": "GSAT0203 (GALILEO 7)", "group": "gnss", "lat": 29.917298355205293, "lon": 8.395501929945743, "alt_km": 23228.212590410752, "timestamp": "2025-12-26T05:31:12.749327+00:00", "meta": {"OBJECT_NAME": "GSAT0203 (GALILEO 7)", "OBJECT_ID": "2015-017A", "EPOCH": "2025-12-24T23:56:01.378752", "MEAN_MOTION": 1.70475851, "ECCENTRICITY": 0.000645, "INCLINATION": 56.8433, "RA_OF_ASC_NODE": 346.3459, "ARG_OF_PERICENTER": 275.4973, "MEAN_ANOMALY": 84.4372, "EPHEMERIS_TYPE": 0, "CLASSIFICATION_TYPE": "U", "NORAD_CAT_ID": 40544, "ELEMENT_SET_NO": 999, "REV_AT_EPOCH": 6623, "BSTAR": 0, "MEAN_MOTION_DOT": -6.1e-07, "MEAN_MOTION_DDOT": 0}, "tle": {"line1": "1 40544U 15017A   25358.99723818 -.00000061  00000+0  00000+0 0  9997", "line2": "2 40544  56.8433 346.3459 0006450 275.4973  84.4372  1.70475851 66237"}}, "geometry": {"type": "Point", "coordinates": [8.395501929945743, 29.917298355205293]}}, {"type": "Feature", "properties": {"norad_id": 40545, "name": "GSAT0204 (GALILEO 8)", "group": "gnss", "lat": -46.28916383325768, "lon": -150.55897470532204, "alt_km": 23211.106827986812, "timestamp": "2025-12-26T05:31:12.749339+00:00", "meta": {"OBJECT_NAME": "GSAT0204 (GALILEO 8)", "OBJECT_ID": "2015-017B", "EPOCH": "2025-12-20T13:26:28.826304", "MEAN_MOTION": 1.70475697, "ECCENTRICITY": 0.0006133, "INCLINATION": 56.8522, "RA_OF_ASC_NODE": 346.4847, "ARG_OF_PERICENTER": 266.5447, "MEAN_ANOMALY": 93.3948, "EPHEMERIS_TYPE": 0, "CLASSIFICATION_TYPE": "U", "NORAD_CAT_ID": 40545, "ELEMENT_SET_NO": 999, "REV_AT_EPOCH": 2920, "BSTAR": 0, "MEAN_MOTION_DOT": -7e-07, "MEAN_MOTION_DDOT": 0}, "tle": {"line1": "1 40545U 15017B   25354.56005586 -.00000070  00000+0  00000+0 0  9992", "line2": "2 40545  56.8522 346.4847 0006133 266.5447  93.3948  1.70475697 29206"}}, "geometry": {"type": "Point", "coordinates": [-150.55897470532204, -46.28916383325768]}}, {"type": "Feature", "properties": {"norad_id": 40549, "name": "BEIDOU-3S IGSO-1S (C31)", "group": "gnss", "lat": -18.532493985054085, "lon": -79.07530696306802, "alt_km": 35903.78088674325, "timestamp": "2025-12-26T05:31:12.749350+00:00", "meta": {"OBJECT_NAME": "BEIDOU-3S IGSO-1S (C31)", "OBJECT_ID": "2015-019A", "EPOCH": "2025-12-25T18:51:43.024032", "MEAN_MOTION": 1.00290186, "ECCENTRICITY": 0.00365496, "INCLINATION": 49.5274, "RA_OF_ASC_NODE": 297.5574, "ARG_OF_PERICENTER": 194.2723, "MEAN_ANOMALY": 340.4455, "EPHEMERIS_TYPE": 0, "CLASSIFICATION_TYPE": "U", "NORAD_CAT_ID": 40549, "ELEMENT_SET_NO": 999, "REV_AT_EPOCH": 3933, "BSTAR": 0, "MEAN_MOTION_DOT": -1.76e-06, "MEAN_MOTION_DDOT": 0}, "tle": {"line1": "1 40549U 15019A   25359.78591463 -.00000176  00000+0  00000+0 0  9998", "line2": "2 40549  49.5274 297.5574 0036549 194.2723 340.4455  1.00290186 39339"}}, "geometry": {"type": "Point", "coordinates": [-79.07530696306802, -18.532493985054085]}}, {"type": "Feature", "properties": {"norad_id": 40730, "name": "GPS BIIF-10 (PRN 08)", "group": "gnss", "lat": 10.682724050517546, "lon": -77.94682039880298, "alt_km": 19892.631130738675, "timestamp": "2025-12-26T05:31:12.749361+00:00", "meta": {"OBJECT_NAME": "GPS BIIF-10 (PRN 08)", "OBJECT_ID": "2015-033A", "EPOCH": "2025-12-24T17:11:33.292320", "MEAN_MOTION": 2.00564999, "ECCENTRICITY": 0.0111668, "INCLINATION": 54.1203, "RA_OF_ASC_NODE": 274.2801, "ARG_OF_PERICENTER": 27.125, "MEAN_ANOMALY": 333.5048, "EPHEMERIS_TYPE": 0, "CLASSIFICATION_TYPE": "U", "NORAD_CAT_ID": 40730, "ELEMENT_SET_NO": 999, "REV_AT_EPOCH": 7649, "BSTAR": 0, "MEAN_MOTION_DOT": -1.6e-07, "MEAN_MOTION_DDOT": 0}, "tle": {"line1": "1 40730U 15033A   25358.71635755 -.00000016  00000+0  00000+0 0  9994", "line2": "2 40730  54.1203 274.2801 0111668  27.1250 333.5048  2.00564999 76491"}}, "geometry": {"type": "Point", "coordinates": [-77.94682039880298, 10.682724050517546]}}, {"type": "Feature", "properties": {"norad_id": 40748, "name": "BEIDOU-3S M2S (C58)", "group": "gnss", "lat": -38.134941418143086, "lon": 161.28099043843912, "alt_km": 21508.479471242634, "timestamp": "2025-12-26T05:31:12.749372+00:00", "meta": {"OBJECT_NAME": "BEIDOU-3S M2S (C58)", "OBJECT_ID": "2015-037A", "EPOCH": "2025-12-24T19:32:44.901312", "MEAN_MOTION": 1.86229543, "ECCENTRICITY": 0.00118109, "INCLINATION": 55.028, "RA_OF_ASC_NODE": 308.0499, "ARG_OF_PERICENTER": 271.2412, "MEAN_ANOMALY": 88.6304, "EPHEMERIS_TYPE": 0, "CLASSIFICATION_TYPE": "U", "NORAD_CAT_ID": 40748, "ELEMENT_SET_NO": 999, "REV_AT_EPOCH": 7087, "BSTAR": 0, "MEAN_MOTION_DOT": -5.3e-07, "MEAN_MOTION_DDOT": 0}, "tle": {"line1": "1 40748U 15037A   25358.81440858 -.00000053  00000+0  00000+0 0  9997", "line2": "2 40748  55.0280 308.0499 0011810 271.2412  88.6304  1.86229543 70879"}}, "geometry": {"type": "Point", "coordinates": [161.28099043843912, -38.134941418143086]}}, {"type": "Feature", "properties": {"norad_id": 40749, "name": "BEIDOU-3S M1S (C57)", "group": "gnss", "lat": 52.670248420168335, "lon": 14.468958913968098, "alt_km": 21516.72641462989, "timestamp": "2025-12-26T05:31:12.749383+00:00", "meta": {"OBJECT_NAME": "BEIDOU-3S M1S (C57)", "OBJECT_ID": "2015-037B", "EPOCH": "2025-12-25T01:01:53.071104", "MEAN_MOTION": 1.86253893, "ECCENTRICITY": 0.00036899, "INCLINATION": 55.0241, "RA_OF_ASC_NODE": 308.031, "ARG_OF_PERICENTER": 2.2616, "MEAN_ANOMALY": 357.7473, "EPHEMERIS_TYPE": 0, "CLASSIFICATION_TYPE": "U", "NORAD_CAT_ID": 40749, "ELEMENT_SET_NO": 999, "REV_AT_EPOCH": 7088, "BSTAR": 0, "MEAN_MOTION_DOT": -5.3e-07, "MEAN_MOTION_DDOT": 0}, "tle": {"line1": "1 40749U 15037B   25359.04297536 -.00000053  00000+0  00000+0 0  9997", "line2": "2 40749  55.0241 308.0310 0003689   2.2616 357.7473  1.86253893 70885"}}, "geometry": {"type": "Point", "coordinates": [14.468958913968098, 52.670248420168335]}}, {"type": "Feature", "properties": {"norad_id": 40889, "name": "GSAT0205 (GALILEO 9)", "group": "gnss", "lat": 17.73750330923646, "lon": -120.6535340479904, "alt_km": 23202.947332990232, "timestamp": "2025-12-26T05:31:12.749394+00:00", "meta": {"OBJECT_NAME": "GSAT0205 (GALILEO 9)", "OBJECT_ID": "2015-045A", "EPOCH": "2025-12-23T06:16:38.782272", "MEAN_MOTION": 1.70473104, "ECCENTRICITY": 0.00062228, "INCLINATION": 55.0001, "RA_OF_ASC_NODE": 226.4673, "ARG_OF_PERICENTER": 42.5636, "MEAN_ANOMALY": 317.5856, "EPHEMERIS_TYPE": 0, "CLASSIFICATION_TYPE": "U", "NORAD_CAT_ID": 40889, "ELEMENT_SET_NO": 999, "REV_AT_EPOCH": 6401, "BSTAR": 0, "MEAN_MOTION_DOT": 7.3e-07, "MEAN_MOTION_DDOT": 0}, "tle": {"line1": "1 40889U 15045A   25357.26155998  .00000073  00000+0  00000+0 0  9999", "line2": "2 40889  55.0001 226.4673 0006222  42.5636 317.5856  1.70473104 64013"}}, "geometry": {"type": "Point", "coordinates": [-120.6535340479904, 17.73750330923646]}}, {"type": "Feature", "properties": {"norad_id": 40890, "name": "GSAT0206 (GALILEO 10)", "group": "gnss", "lat": -48.660806182551454, "lon": 99.16909651342267, "alt_km": 23238.786564828297, "timestamp": "2025-12-26T05:31:12.749407+00:00", "meta": {"OBJECT_NAME": "GSAT0206 (GALILEO 10)", "OBJECT_ID": "2015-045B", "EPOCH": "2025-12-25T05:48:23.394816", "MEAN_MOTION": 1.7047315, "ECCENTRICITY": 0.0004109, "INCLINATION": 54.9985, "RA_OF_ASC_NODE": 226.4076, "ARG_OF_PERICENTER": 41.5093, "MEAN_ANOMALY": 318.6128, "EPHEMERIS_TYPE": 0, "CLASSIFICATION_TYPE": "U", "NORAD_CAT_ID": 40890, "ELEMENT_SET_NO": 999, "REV_AT_EPOCH": 6407, "BSTAR": 0, "MEAN_MOTION_DOT": 7e-07, "MEAN_MOTION_DDOT": 0}, "tle": {"line1": "1 40890U 15045B   25359.24193744  .00000070  00000+0  00000+0 0  9999", "line2": "2 40890  54.9985 226.4076 0004109  41.5093 318.6128  1.70473150 64070"}}, "geometry": {"type": "Point", "coordinates": [99.16909651342267, -48.660806182551454]}}]}